{
    "links": {
        "self": "http://www.neowsapp.com/rest/v1/neo/3555102?api_key=iIulBulltgU6a56xZRHN4H3l9WmuAYTsLGpBGhQ2"
    },
    "id": "3555102",
    "neo_reference_id": "3555102",
    "name": "(2011 AM16)",
    "designation": "2011 AM16",
    "nasa_jpl_url": "http://ssd.jpl.nasa.gov/sbdb.cgi?sstr=3555102",
    "absolute_magnitude_h": 22.2,
    "estimated_diameter": {
        "kilometers": {
            "estimated_diameter_min": 0.096506147,
            "estimated_diameter_max": 0.2157943048
        },
        "meters": {
            "estimated_diameter_min": 96.5061469579,
            "estimated_diameter_max": 215.7943048444
        },
        "miles": {
            "estimated_diameter_min": 0.059966121,
            "estimated_diameter_max": 0.134088323
        },
        "feet": {
            "estimated_diameter_min": 316.6212271853,
            "estimated_diameter_max": 707.9865871058
        }
    },
    "is_potentially_hazardous_asteroid": false,
    "close_approach_data": [
        {
            "close_approach_date": "2011-02-12",
            "close_approach_date_full": "2011-Feb-12 22:07",
            "epoch_date_close_approach": 1297548420000,
            "relative_velocity": {
                "kilometers_per_second": "13.5013846449",
                "kilometers_per_hour": "48604.9847215864",
                "miles_per_hour": "30201.2473121435"
            },
            "miss_distance": {
                "astronomical": "0.1986559891",
                "lunar": "77.2771797599",
                "kilometers": "29718512.832103217",
                "miles": "18466227.5835177146"
            },
            "orbiting_body": "Earth"
        }
    ],
    "orbital_data": {
        "orbit_id": "7",
        "orbit_determination_date": "2017-04-06 08:55:02",
        "first_observation_date": "2011-01-08",
        "last_observation_date": "2011-02-04",
        "data_arc_in_days": 27,
        "observations_used": 19,
        "orbit_uncertainty": "7",
        "minimum_orbit_intersection": ".197152",
        "jupiter_tisserand_invariant": "3.244",
        "epoch_osculation": "2459000.5",
        "eccentricity": ".6028769608259545",
        "semi_major_axis": "2.349187109069533",
        "inclination": "16.3829312298873",
        "ascending_node_longitude": "107.0266038395488",
        "orbital_period": "1315.148640680356",
        "perihelion_distance": ".9329163243421829",
        "perihelion_argument": "86.87731928709647",
        "aphelion_distance": "3.765457893796883",
        "perihelion_time": "2459591.402044000284",
        "mean_anomaly": "198.250423366552",
        "mean_motion": ".2737333171813674",
        "equinox": "J2000",
        "orbit_class": {
            "orbit_class_type": "APO",
            "orbit_class_description": "Near-Earth asteroid orbits which cross the Earth’s orbit similar to that of 1862 Apollo",
            "orbit_class_range": "a (semi-major axis) > 1.0 AU; q (perihelion) < 1.017 AU"
        }
    },
    "is_sentry_object": false
}